{
    "links": {
        "self": "http://www.neowsapp.com/rest/v1/neo/3265390?api_key=iIulBulltgU6a56xZRHN4H3l9WmuAYTsLGpBGhQ2"
    },
    "id": "3265390",
    "neo_reference_id": "3265390",
    "name": "(2005 AJ3)",
    "designation": "2005 AJ3",
    "nasa_jpl_url": "http://ssd.jpl.nasa.gov/sbdb.cgi?sstr=3265390",
    "absolute_magnitude_h": 23.2,
    "estimated_diameter": {
        "kilometers": {
            "estimated_diameter_min": 0.0608912622,
            "estimated_diameter_max": 0.1361570015
        },
        "meters": {
            "estimated_diameter_min": 60.8912622106,
            "estimated_diameter_max": 136.1570015386
        },
        "miles": {
            "estimated_diameter_min": 0.0378360645,
            "estimated_diameter_max": 0.0846040122
        },
        "feet": {
            "estimated_diameter_min": 199.7744887109,
            "estimated_diameter_max": 446.7093369279
        }
    },
    "is_potentially_hazardous_asteroid": false,
    "close_approach_data": [
        {
            "close_approach_date": "1936-03-09",
            "close_approach_date_full": "1936-Mar-09 02:16",
            "epoch_date_close_approach": -1067118240000,
            "relative_velocity": {
                "kilometers_per_second": "10.7593746959",
                "kilometers_per_hour": "38733.7489053037",
                "miles_per_hour": "24067.6452572983"
            },
            "miss_distance": {
                "astronomical": "0.3301279047",
                "lunar": "128.4197549283",
                "kilometers": "49386431.370682989",
                "miles": "30687305.4644796882"
            },
            "orbiting_body": "Earth"
        },
        {
            "close_approach_date": "2005-01-17",
            "close_approach_date_full": "2005-Jan-17 07:01",
            "epoch_date_close_approach": 1105945260000,
            "relative_velocity": {
                "kilometers_per_second": "4.3029266177",
                "kilometers_per_hour": "15490.5358237194",
                "miles_per_hour": "9625.2165511328"
            },
            "miss_distance": {
                "astronomical": "0.0834040731",
                "lunar": "32.4441844359",
                "kilometers": "12477071.685084297",
                "miles": "7752892.8386934186"
            },
            "orbiting_body": "Earth"
        }
    ],
    "orbital_data": {
        "orbit_id": "11",
        "orbit_determination_date": "2017-04-06 09:11:37",
        "first_observation_date": "2005-01-06",
        "last_observation_date": "2005-01-15",
        "data_arc_in_days": 9,
        "observations_used": 30,
        "orbit_uncertainty": "8",
        "minimum_orbit_intersection": ".0567924",
        "jupiter_tisserand_invariant": "5.046",
        "epoch_osculation": "2453381.5",
        "eccentricity": ".2003050633805132",
        "semi_major_axis": "1.273935493812469",
        "inclination": "7.543178573131133",
        "ascending_node_longitude": "282.0442001748642",
        "orbital_period": "525.1937917597432",
        "perihelion_distance": "1.018759763981677",
        "perihelion_argument": "215.715010841128",
        "aphelion_distance": "1.529111223643261",
        "perihelion_time": "2453410.804489727500",
        "mean_anomaly": "339.9129074497399",
        "mean_motion": ".6854612633438871",
        "equinox": "J2000",
        "orbit_class": {
            "orbit_class_type": "AMO",
            "orbit_class_description": "Near-Earth asteroid orbits similar to that of 1221 Amor",
            "orbit_class_range": "1.017 AU < q (perihelion) < 1.3 AU"
        }
    },
    "is_sentry_object": false
}